[{"OBJECT_NAME":"STARLINK-32798","OBJECT_ID":"2025-034A","EPOCH":"2026-03-09T20:24:32.546016","MEAN_MOTION":15.30200436,"ECCENTRICITY":8.224e-5,"INCLINATION":53.1575,"RA_OF_ASC_NODE":270.007,"ARG_OF_PERICENTER":70.6061,"MEAN_ANOMALY":289.5028,"EPHEMERIS_TYPE":0,"CLASSIFICATION_TYPE":"U","NORAD_CAT_ID":63029,"ELEMENT_SET_NO":999,"REV_AT_EPOCH":5893,"BSTAR":0.0010128444,"MEAN_MOTION_DOT":0.00029759,"MEAN_MOTION_DDOT":0},{"OBJECT_NAME":"NOAA 17 DEB","OBJECT_ID":"2002-032DK","EPOCH":"2026-03-06T06:53:22.349472","MEAN_MOTION":15.29547844,"ECCENTRICITY":0.00135803,"INCLINATION":98.6735,"RA_OF_ASC_NODE":77.6727,"ARG_OF_PERICENTER":131.2945,"MEAN_ANOMALY":228.9463,"EPHEMERIS_TYPE":0,"CLASSIFICATION_TYPE":"U","NORAD_CAT_ID":49481,"ELEMENT_SET_NO":999,"REV_AT_EPOCH":24998,"BSTAR":0.011623019,"MEAN_MOTION_DOT":0.00349096,"MEAN_MOTION_DDOT":0}]
